METEOSAT-12 (MTG-I1)
1 54743U 22170C   26193.77678795 -.00000009  00000+0  00000+0 0  9990
2 54743   0.7226  19.2711 0003772  82.5945 108.1551  1.00267154 13231
